[{"OBJECT_NAME":"ARCTIC WEATHER SATELLITE","OBJECT_ID":"2024-149CD","EPOCH":"2026-03-09T17:59:50.988480","MEAN_MOTION":14.89807185,"ECCENTRICITY":0.00036824,"INCLINATION":97.6882,"RA_OF_ASC_NODE":142.0249,"ARG_OF_PERICENTER":84.5816,"MEAN_ANOMALY":275.5822,"EPHEMERIS_TYPE":0,"CLASSIFICATION_TYPE":"U","NORAD_CAT_ID":60543,"ELEMENT_SET_NO":999,"REV_AT_EPOCH":8449,"BSTAR":-0.00043535777,"MEAN_MOTION_DOT":-4.227e-5,"MEAN_MOTION_DDOT":0},{"OBJECT_NAME":"COSMOS 2251 DEB","OBJECT_ID":"1993-036MX","EPOCH":"2026-03-09T21:15:17.161920","MEAN_MOTION":14.90277987,"ECCENTRICITY":0.00046591,"INCLINATION":74.0046,"RA_OF_ASC_NODE":352.7373,"ARG_OF_PERICENTER":45.5387,"MEAN_ANOMALY":20.0979,"EPHEMERIS_TYPE":0,"CLASSIFICATION_TYPE":"U","NORAD_CAT_ID":34301,"ELEMENT_SET_NO":999,"REV_AT_EPOCH":89696,"BSTAR":0.0042213652,"MEAN_MOTION_DOT":0.00041219,"MEAN_MOTION_DDOT":0}]
